[{"OBJECT_NAME":"NUSAT-44 (MARIA MITCHELL)","OBJECT_ID":"2024-043AA","EPOCH":"2026-03-09T22:12:18.524160","MEAN_MOTION":15.29764305,"ECCENTRICITY":0.0007331,"INCLINATION":97.5299,"RA_OF_ASC_NODE":207.7691,"ARG_OF_PERICENTER":214.9017,"MEAN_ANOMALY":145.1743,"EPHEMERIS_TYPE":0,"CLASSIFICATION_TYPE":"U","NORAD_CAT_ID":59122,"ELEMENT_SET_NO":999,"REV_AT_EPOCH":11209,"BSTAR":0.00061063193,"MEAN_MOTION_DOT":0.00017562,"MEAN_MOTION_DDOT":0},{"OBJECT_NAME":"STARLINK-31410","OBJECT_ID":"2024-045B","EPOCH":"2026-03-09T10:52:37.312032","MEAN_MOTION":15.27577428,"ECCENTRICITY":0.00015375,"INCLINATION":43.006,"RA_OF_ASC_NODE":94.0186,"ARG_OF_PERICENTER":287.757,"MEAN_ANOMALY":72.3113,"EPHEMERIS_TYPE":0,"CLASSIFICATION_TYPE":"U","NORAD_CAT_ID":59179,"ELEMENT_SET_NO":999,"REV_AT_EPOCH":11312,"BSTAR":4.097753e-6,"MEAN_MOTION_DOT":-1.5e-6,"MEAN_MOTION_DDOT":0}]
